[{"OBJECT_NAME":"FLOCK 4G-22","OBJECT_ID":"2025-009AN","EPOCH":"2026-03-09T22:51:40.689792","MEAN_MOTION":15.2720903,"ECCENTRICITY":8.959e-5,"INCLINATION":97.4046,"RA_OF_ASC_NODE":151.5884,"ARG_OF_PERICENTER":284.1963,"MEAN_ANOMALY":75.9176,"EPHEMERIS_TYPE":0,"CLASSIFICATION_TYPE":"U","NORAD_CAT_ID":62645,"ELEMENT_SET_NO":999,"REV_AT_EPOCH":6376,"BSTAR":0.00049035383,"MEAN_MOTION_DOT":0.00013013,"MEAN_MOTION_DDOT":0},{"OBJECT_NAME":"STARLINK-35555","OBJECT_ID":"2025-259D","EPOCH":"2026-03-09T21:43:03.284832","MEAN_MOTION":15.27594706,"ECCENTRICITY":0.00024707,"INCLINATION":43.0001,"RA_OF_ASC_NODE":273.1798,"ARG_OF_PERICENTER":269.0113,"MEAN_ANOMALY":91.0456,"EPHEMERIS_TYPE":0,"CLASSIFICATION_TYPE":"U","NORAD_CAT_ID":66425,"ELEMENT_SET_NO":999,"REV_AT_EPOCH":1952,"BSTAR":0.00097245524,"MEAN_MOTION_DOT":0.00026607,"MEAN_MOTION_DDOT":0}]
